ONEWEB-0228             
1 48780U 21045P   24076.51680265 -.00000079  00000+0 -24362-3 0  9998
2 48780  87.8965  62.8988 0001906  82.3883 277.7463 13.15548301136165
